STARLINK-30494          
1 57970U 23151G   26068.36049035 -.00001272  00000+0 -35691-4 0  9993
2 57970  43.0027 192.4566 0001155 241.5536 118.5200 15.28417441137406
STARLINK-36471          
1 67324U 26002V   26068.11900643  .00028792  00000+0  10515-2 0  9999
2 67324  43.0021 328.3142 0001393 277.6642  82.4051 15.27585850 10992
